ORBCOMM FM24            
1 25478U 98053D   25046.57872102  .00002298  00000+0  80647-3 0  9998
2 25478  45.0071 125.4913 0002968 282.8790  77.1727 14.37548816379941
ORBCOMM FM25            
1 25479U 98053E   25046.54804615  .00002272  00000+0  79822-3 0  9995
2 25479  45.0062 123.8934 0004147 319.7626  40.2915 14.37530042380232
ORBCOMM FM26            
1 25480U 98053F   25046.55226041  .00001835  00000+0  66506-3 0  9998
2 25480  45.0066 119.4877 0004975 352.2653   7.8117 14.36670862380154
ORBCOMM FM27            
1 25481U 98053G   25046.53744338  .00002293  00000+0  80507-3 0  9997
2 25481  45.0045 124.1826 0002396 253.3985 106.6600 14.37537095380160
ORBCOMM FM28            
1 25482U 98053H   25046.52409408  .00002107  00000+0  73964-3 0  9996
2 25482  45.0052  61.9483 0003534  10.6998 349.3924 14.37789124380841
ORBCOMM FM30            
1 25980U 99065A   25046.13857743  .00001764  00000+0  63917-3 0  9994
2 25980  45.0325 307.2373 0006019 107.6329 252.5177 14.36827838316890
ORBCOMM FM31            
1 25981U 99065B   25046.10771027  .00001605  00000+0  58629-3 0  9990
2 25981  45.0237 300.9143 0003215 129.5275 230.5858 14.36792736316447
ORBCOMM FM32            
1 25982U 99065C   25046.42051850  .00001767  00000+0  65291-3 0  9993
2 25982  45.0168 315.1893 0004935 132.7323 227.3940 14.35834465317094
