<?xml version="1.0" encoding="UTF-8"?>
<ndm xmlns:xsi="http://www.w3.org/2001/XMLSchema-instance" xsi:noNamespaceSchemaLocation="https://sanaregistry.org/r/ndmxml_unqualified/ndmxml-2.0.0-master-2.0.xsd">
<omm id="CCSDS_OMM_VERS" version="2.0">
<header><CREATION_DATE/><ORIGINATOR/></header><body><segment><metadata><OBJECT_NAME>ORBCOMM FM24</OBJECT_NAME><OBJECT_ID>1998-053D</OBJECT_ID><CENTER_NAME>EARTH</CENTER_NAME><REF_FRAME>TEME</REF_FRAME><TIME_SYSTEM>UTC</TIME_SYSTEM><MEAN_ELEMENT_THEORY>SGP4</MEAN_ELEMENT_THEORY></metadata><data><meanElements><EPOCH>2025-02-15T13:53:21.496128</EPOCH><MEAN_MOTION>14.37548816</MEAN_MOTION><ECCENTRICITY>.0002968</ECCENTRICITY><INCLINATION>45.0071</INCLINATION><RA_OF_ASC_NODE>125.4913</RA_OF_ASC_NODE><ARG_OF_PERICENTER>282.8790</ARG_OF_PERICENTER><MEAN_ANOMALY>77.1727</MEAN_ANOMALY></meanElements><tleParameters><EPHEMERIS_TYPE>0</EPHEMERIS_TYPE><CLASSIFICATION_TYPE>U</CLASSIFICATION_TYPE><NORAD_CAT_ID>25478</NORAD_CAT_ID><ELEMENT_SET_NO>999</ELEMENT_SET_NO><REV_AT_EPOCH>37994</REV_AT_EPOCH><BSTAR>.80647E-3</BSTAR><MEAN_MOTION_DOT>.2298E-4</MEAN_MOTION_DOT><MEAN_MOTION_DDOT>0</MEAN_MOTION_DDOT></tleParameters></data></segment></body></omm>
<omm id="CCSDS_OMM_VERS" version="2.0">
<header><CREATION_DATE/><ORIGINATOR/></header><body><segment><metadata><OBJECT_NAME>ORBCOMM FM25</OBJECT_NAME><OBJECT_ID>1998-053E</OBJECT_ID><CENTER_NAME>EARTH</CENTER_NAME><REF_FRAME>TEME</REF_FRAME><TIME_SYSTEM>UTC</TIME_SYSTEM><MEAN_ELEMENT_THEORY>SGP4</MEAN_ELEMENT_THEORY></metadata><data><meanElements><EPOCH>2025-02-15T13:09:11.187360</EPOCH><MEAN_MOTION>14.37530042</MEAN_MOTION><ECCENTRICITY>.0004147</ECCENTRICITY><INCLINATION>45.0062</INCLINATION><RA_OF_ASC_NODE>123.8934</RA_OF_ASC_NODE><ARG_OF_PERICENTER>319.7626</ARG_OF_PERICENTER><MEAN_ANOMALY>40.2915</MEAN_ANOMALY></meanElements><tleParameters><EPHEMERIS_TYPE>0</EPHEMERIS_TYPE><CLASSIFICATION_TYPE>U</CLASSIFICATION_TYPE><NORAD_CAT_ID>25479</NORAD_CAT_ID><ELEMENT_SET_NO>999</ELEMENT_SET_NO><REV_AT_EPOCH>38023</REV_AT_EPOCH><BSTAR>.79822E-3</BSTAR><MEAN_MOTION_DOT>.2272E-4</MEAN_MOTION_DOT><MEAN_MOTION_DDOT>0</MEAN_MOTION_DDOT></tleParameters></data></segment></body></omm>
<omm id="CCSDS_OMM_VERS" version="2.0">
<header><CREATION_DATE/><ORIGINATOR/></header><body><segment><metadata><OBJECT_NAME>ORBCOMM FM26</OBJECT_NAME><OBJECT_ID>1998-053F</OBJECT_ID><CENTER_NAME>EARTH</CENTER_NAME><REF_FRAME>TEME</REF_FRAME><TIME_SYSTEM>UTC</TIME_SYSTEM><MEAN_ELEMENT_THEORY>SGP4</MEAN_ELEMENT_THEORY></metadata><data><meanElements><EPOCH>2025-02-15T13:15:15.299424</EPOCH><MEAN_MOTION>14.36670862</MEAN_MOTION><ECCENTRICITY>.0004975</ECCENTRICITY><INCLINATION>45.0066</INCLINATION><RA_OF_ASC_NODE>119.4877</RA_OF_ASC_NODE><ARG_OF_PERICENTER>352.2653</ARG_OF_PERICENTER><MEAN_ANOMALY>7.8117</MEAN_ANOMALY></meanElements><tleParameters><EPHEMERIS_TYPE>0</EPHEMERIS_TYPE><CLASSIFICATION_TYPE>U</CLASSIFICATION_TYPE><NORAD_CAT_ID>25480</NORAD_CAT_ID><ELEMENT_SET_NO>999</ELEMENT_SET_NO><REV_AT_EPOCH>38015</REV_AT_EPOCH><BSTAR>.66506E-3</BSTAR><MEAN_MOTION_DOT>.1835E-4</MEAN_MOTION_DOT><MEAN_MOTION_DDOT>0</MEAN_MOTION_DDOT></tleParameters></data></segment></body></omm>
<omm id="CCSDS_OMM_VERS" version="2.0">
<header><CREATION_DATE/><ORIGINATOR/></header><body><segment><metadata><OBJECT_NAME>ORBCOMM FM27</OBJECT_NAME><OBJECT_ID>1998-053G</OBJECT_ID><CENTER_NAME>EARTH</CENTER_NAME><REF_FRAME>TEME</REF_FRAME><TIME_SYSTEM>UTC</TIME_SYSTEM><MEAN_ELEMENT_THEORY>SGP4</MEAN_ELEMENT_THEORY></metadata><data><meanElements><EPOCH>2025-02-15T12:53:55.108032</EPOCH><MEAN_MOTION>14.37537095</MEAN_MOTION><ECCENTRICITY>.0002396</ECCENTRICITY><INCLINATION>45.0045</INCLINATION><RA_OF_ASC_NODE>124.1826</RA_OF_ASC_NODE><ARG_OF_PERICENTER>253.3985</ARG_OF_PERICENTER><MEAN_ANOMALY>106.6600</MEAN_ANOMALY></meanElements><tleParameters><EPHEMERIS_TYPE>0</EPHEMERIS_TYPE><CLASSIFICATION_TYPE>U</CLASSIFICATION_TYPE><NORAD_CAT_ID>25481</NORAD_CAT_ID><ELEMENT_SET_NO>999</ELEMENT_SET_NO><REV_AT_EPOCH>38016</REV_AT_EPOCH><BSTAR>.80507E-3</BSTAR><MEAN_MOTION_DOT>.2293E-4</MEAN_MOTION_DOT><MEAN_MOTION_DDOT>0</MEAN_MOTION_DDOT></tleParameters></data></segment></body></omm>
<omm id="CCSDS_OMM_VERS" version="2.0">
<header><CREATION_DATE/><ORIGINATOR/></header><body><segment><metadata><OBJECT_NAME>ORBCOMM FM28</OBJECT_NAME><OBJECT_ID>1998-053H</OBJECT_ID><CENTER_NAME>EARTH</CENTER_NAME><REF_FRAME>TEME</REF_FRAME><TIME_SYSTEM>UTC</TIME_SYSTEM><MEAN_ELEMENT_THEORY>SGP4</MEAN_ELEMENT_THEORY></metadata><data><meanElements><EPOCH>2025-02-15T12:34:41.728512</EPOCH><MEAN_MOTION>14.37789124</MEAN_MOTION><ECCENTRICITY>.0003534</ECCENTRICITY><INCLINATION>45.0052</INCLINATION><RA_OF_ASC_NODE>61.9483</RA_OF_ASC_NODE><ARG_OF_PERICENTER>10.6998</ARG_OF_PERICENTER><MEAN_ANOMALY>349.3924</MEAN_ANOMALY></meanElements><tleParameters><EPHEMERIS_TYPE>0</EPHEMERIS_TYPE><CLASSIFICATION_TYPE>U</CLASSIFICATION_TYPE><NORAD_CAT_ID>25482</NORAD_CAT_ID><ELEMENT_SET_NO>999</ELEMENT_SET_NO><REV_AT_EPOCH>38084</REV_AT_EPOCH><BSTAR>.73964E-3</BSTAR><MEAN_MOTION_DOT>.2107E-4</MEAN_MOTION_DOT><MEAN_MOTION_DDOT>0</MEAN_MOTION_DDOT></tleParameters></data></segment></body></omm>
<omm id="CCSDS_OMM_VERS" version="2.0">
<header><CREATION_DATE/><ORIGINATOR/></header><body><segment><metadata><OBJECT_NAME>ORBCOMM FM30</OBJECT_NAME><OBJECT_ID>1999-065A</OBJECT_ID><CENTER_NAME>EARTH</CENTER_NAME><REF_FRAME>TEME</REF_FRAME><TIME_SYSTEM>UTC</TIME_SYSTEM><MEAN_ELEMENT_THEORY>SGP4</MEAN_ELEMENT_THEORY></metadata><data><meanElements><EPOCH>2025-02-15T03:19:33.089952</EPOCH><MEAN_MOTION>14.36827838</MEAN_MOTION><ECCENTRICITY>.0006019</ECCENTRICITY><INCLINATION>45.0325</INCLINATION><RA_OF_ASC_NODE>307.2373</RA_OF_ASC_NODE><ARG_OF_PERICENTER>107.6329</ARG_OF_PERICENTER><MEAN_ANOMALY>252.5177</MEAN_ANOMALY></meanElements><tleParameters><EPHEMERIS_TYPE>0</EPHEMERIS_TYPE><CLASSIFICATION_TYPE>U</CLASSIFICATION_TYPE><NORAD_CAT_ID>25980</NORAD_CAT_ID><ELEMENT_SET_NO>999</ELEMENT_SET_NO><REV_AT_EPOCH>31689</REV_AT_EPOCH><BSTAR>.63917E-3</BSTAR><MEAN_MOTION_DOT>.1764E-4</MEAN_MOTION_DOT><MEAN_MOTION_DDOT>0</MEAN_MOTION_DDOT></tleParameters></data></segment></body></omm>
<omm id="CCSDS_OMM_VERS" version="2.0">
<header><CREATION_DATE/><ORIGINATOR/></header><body><segment><metadata><OBJECT_NAME>ORBCOMM FM31</OBJECT_NAME><OBJECT_ID>1999-065B</OBJECT_ID><CENTER_NAME>EARTH</CENTER_NAME><REF_FRAME>TEME</REF_FRAME><TIME_SYSTEM>UTC</TIME_SYSTEM><MEAN_ELEMENT_THEORY>SGP4</MEAN_ELEMENT_THEORY></metadata><data><meanElements><EPOCH>2025-02-15T02:35:06.167328</EPOCH><MEAN_MOTION>14.36792736</MEAN_MOTION><ECCENTRICITY>.0003215</ECCENTRICITY><INCLINATION>45.0237</INCLINATION><RA_OF_ASC_NODE>300.9143</RA_OF_ASC_NODE><ARG_OF_PERICENTER>129.5275</ARG_OF_PERICENTER><MEAN_ANOMALY>230.5858</MEAN_ANOMALY></meanElements><tleParameters><EPHEMERIS_TYPE>0</EPHEMERIS_TYPE><CLASSIFICATION_TYPE>U</CLASSIFICATION_TYPE><NORAD_CAT_ID>25981</NORAD_CAT_ID><ELEMENT_SET_NO>999</ELEMENT_SET_NO><REV_AT_EPOCH>31644</REV_AT_EPOCH><BSTAR>.58629E-3</BSTAR><MEAN_MOTION_DOT>.1605E-4</MEAN_MOTION_DOT><MEAN_MOTION_DDOT>0</MEAN_MOTION_DDOT></tleParameters></data></segment></body></omm>
<omm id="CCSDS_OMM_VERS" version="2.0">
<header><CREATION_DATE/><ORIGINATOR/></header><body><segment><metadata><OBJECT_NAME>ORBCOMM FM32</OBJECT_NAME><OBJECT_ID>1999-065C</OBJECT_ID><CENTER_NAME>EARTH</CENTER_NAME><REF_FRAME>TEME</REF_FRAME><TIME_SYSTEM>UTC</TIME_SYSTEM><MEAN_ELEMENT_THEORY>SGP4</MEAN_ELEMENT_THEORY></metadata><data><meanElements><EPOCH>2025-02-15T10:05:32.798400</EPOCH><MEAN_MOTION>14.35834465</MEAN_MOTION><ECCENTRICITY>.0004935</ECCENTRICITY><INCLINATION>45.0168</INCLINATION><RA_OF_ASC_NODE>315.1893</RA_OF_ASC_NODE><ARG_OF_PERICENTER>132.7323</ARG_OF_PERICENTER><MEAN_ANOMALY>227.3940</MEAN_ANOMALY></meanElements><tleParameters><EPHEMERIS_TYPE>0</EPHEMERIS_TYPE><CLASSIFICATION_TYPE>U</CLASSIFICATION_TYPE><NORAD_CAT_ID>25982</NORAD_CAT_ID><ELEMENT_SET_NO>999</ELEMENT_SET_NO><REV_AT_EPOCH>31709</REV_AT_EPOCH><BSTAR>.65291E-3</BSTAR><MEAN_MOTION_DOT>.1767E-4</MEAN_MOTION_DOT><MEAN_MOTION_DDOT>0</MEAN_MOTION_DDOT></tleParameters></data></segment></body></omm>

</ndm>
